        "eccentricity": '0.00011560',
        "mean_motion_rev_per_day": '14.41991924',
        "altitude_m": '751924.720',
    },
    {
        "name": 'ALOS 2',
        "norad_catalog_id": '39766',
        "tle_line1": '1 39766U 14029A   22104.08603942 -.00000178  00000-0 -17011-4 0  9990',
        "tle_line2": '2 39766  97.9186 202.1375 0001802  93.8460 266.2952 14.79470204426118',
        "epoch_iso": '2022-04-14T02:03:53.805888Z',
        "inclination_deg": '97.918600',
        "eccentricity": '0.00018020',
        "mean_motion_rev_per_day": '14.79470204',
        "altitude_m": '630996.942',
    },
    {
        "name": 'KAZEOSAT 2',
        "norad_catalog_id": '40010',
        "tle_line1": '1 40010U 14033A   22103.96713746  .00000516  00000-0  71277-4 0  9997',
        "tle_line2": '2 40010  97.7317 351.4238 0013839 292.6513  67.3233 14.82088485422896',
        "epoch_iso": '2022-04-13T23:12:40.676544Z',
        "inclination_deg": '97.731700',
        "eccentricity": '0.00138390',
        "mean_motion_rev_per_day": '14.82088485',
        "altitude_m": '622739.545',
    },
    {
        "name": 'HODOYOSHI 4',
        "norad_catalog_id": '40011',
        "tle_line1": '1 40011U 14033B   22103.95465590  .00000972  00000-0  12965-3 0  9992',
        "tle_line2": '2 40011  97.6877 339.8252 0025266 290.3768  69.4731 14.81556866422547',
        "epoch_iso": '2022-04-13T22:54:42.269760Z',
        "inclination_deg": '97.687700',
        "eccentricity": '0.00252660',
        "mean_motion_rev_per_day": '14.81556866',
        "altitude_m": '624414.169',
    },
    {
        "name": 'DEIMOS 2',
        "norad_catalog_id": '40013',
        "tle_line1": '1 40013U 14033D   22103.96152270  .00001375  00000-0  16669-3 0  9996',
        "tle_line2": '2 40013  97.7660   2.7204 0001565  36.8658 323.2668 14.85175640423621',
        "epoch_iso": '2022-04-13T23:04:35.561280Z',
        "inclination_deg": '97.766000',
        "eccentricity": '0.00015650',
        "mean_motion_rev_per_day": '14.85175640',
        "altitude_m": '613034.616',
    },
    {
        "name": 'HODOYOSHI 3',
        "norad_catalog_id": '40015',
        "tle_line1": '1 40015U 14033F   22103.85465413  .00000483  00000-0  71719-4 0  9999',
        "tle_line2": '2 40015  97.6503 321.0399 0035782 315.3207  44.5123 14.78833114421764',
        "epoch_iso": '2022-04-13T20:30:42.116832Z',
        "inclination_deg": '97.650300',
        "eccentricity": '0.00357820',
        "mean_motion_rev_per_day": '14.78833114',
        "altitude_m": '633009.849',
    },
    {
        "name": 'SPOT 7',
        "norad_catalog_id": '40053',
        "tle_line1": '1 40053U 14034A   22103.94527059  .00000307  00000-0  75757-4 0  9998',
        "tle_line2": '2 40053  98.1768 172.4319 0001152  81.3842 278.7480 14.58557551414680',
        "epoch_iso": '2022-04-13T22:41:11.378976Z',
        "inclination_deg": '98.176800',
        "eccentricity": '0.00011520',
        "mean_motion_rev_per_day": '14.58557551',
        "altitude_m": '697835.363',
    },
    {
        "name": 'SKYSAT 2',
        "norad_catalog_id": '40072',
        "tle_line1": '1 40072U 14037D   22103.87426308  .00000629  00000-0  87443-4 0  9991',
        "tle_line2": '2 40072  98.4194 329.1533 0006848 152.7430 207.4141 14.81622063419763',
        "epoch_iso": '2022-04-13T20:58:56.330112Z',
        "inclination_deg": '98.419400',
        "eccentricity": '0.00068480',
        "mean_motion_rev_per_day": '14.81622063',
        "altitude_m": '624208.742',
    },
    {
        "name": 'WORLDVIEW 3',
        "norad_catalog_id": '40115',
        "tle_line1": '1 40115U 14048A   22103.89094903  .00000913  00000-0  11261-3 0  9995',
        "tle_line2": '2 40115  97.8568 179.7162 0000831   2.7121 357.4062 14.85269969415561',
        "epoch_iso": '2022-04-13T21:22:57.996192Z',
        "inclination_deg": '97.856800',
        "eccentricity": '0.00008310',
        "mean_motion_rev_per_day": '14.85269969',
        "altitude_m": '612738.609',
    },
    {
        "name": 'GAOFEN-2',
        "norad_catalog_id": '40118',
        "tle_line1": '1 40118U 14049A   22103.90276711  .00000968  00000-0  13232-3 0  9990',
        "tle_line2": '2 40118  97.7664 174.4200 0007507 154.5257 205.6320 14.80709293413549',
        "epoch_iso": '2022-04-13T21:39:59.078304Z',
        "inclination_deg": '97.766400',
        "eccentricity": '0.00075070',
        "mean_motion_rev_per_day": '14.80709293',
        "altitude_m": '627086.135',
    },
    {
        "name": 'YAOGAN-21',
        "norad_catalog_id": '40143',
        "tle_line1": '1 40143U 14053A   22103.93372660  .00007284  00000-0  30459-3 0  9994',
        "tle_line2": '2 40143  97.3558 172.5377 0016377  90.8486  82.4629 15.23767527422725',
        "epoch_iso": '2022-04-13T22:24:33.978240Z',
        "inclination_deg": '97.355800',
        "eccentricity": '0.00163770',
        "mean_motion_rev_per_day": '15.23767527',
        "altitude_m": '494488.807',
    },
    {
        "name": 'YAOGAN-22',
        "norad_catalog_id": '40275',
        "tle_line1": '1 40275U 14063A   22104.15176423 -.00000028  00000-0  47166-4 0  9999',
        "tle_line2": '2 40275 100.5559 224.8771 0006626  38.2912 321.8669 13.15436686359297',
        "epoch_iso": '2022-04-14T03:38:32.429472Z',
        "inclination_deg": '100.555900',
        "eccentricity": '0.00066260',
        "mean_motion_rev_per_day": '13.15436686',
        "altitude_m": '1202200.489',
    },
    {
        "name": 'ASNARO',
        "norad_catalog_id": '40298',
        "tle_line1": '1 40298U 14070A   22103.90518177  .00009156  00000-0  43314-3 0  9990',
        "tle_line2": '2 40298  97.4683 186.6763 0002039  98.2674  31.8252 15.19592818412398',
        "epoch_iso": '2022-04-13T21:43:27.704928Z',
        "inclination_deg": '97.468300',
        "eccentricity": '0.00020390',
        "mean_motion_rev_per_day": '15.19592818',
        "altitude_m": '507070.288',
    },
    {
        "name": 'YAOGAN-24',
        "norad_catalog_id": '40310',
        "tle_line1": '1 40310U 14072A   22104.05367814  .00000889  00000-0  13524-3 0  9998',
        "tle_line2": '2 40310  97.9644 225.2940 0019769 122.3013 238.0103 14.76311090398736',
        "epoch_iso": '2022-04-14T01:17:17.791296Z',
        "inclination_deg": '97.964400',
        "eccentricity": '0.00197690',
        "mean_motion_rev_per_day": '14.76311090',
        "altitude_m": '640992.470',
    },
    {
        "name": 'CBERS-4',
        "norad_catalog_id": '40336',
        "tle_line1": '1 40336U 14079A   22103.79775450 -.00001443  00000-0 -48732-3 0  9990',
        "tle_line2": '2 40336  98.4869 178.6795 0000771  81.9673 278.1424 14.35434890385133',
        "epoch_iso": '2022-04-13T19:08:45.988800Z',
        "inclination_deg": '98.486900',
        "eccentricity": '0.00007710',
        "mean_motion_rev_per_day": '14.35434890',
        "altitude_m": '773621.529',
    },
    {
        "name": 'YAOGAN 26',
        "norad_catalog_id": '40362',
        "tle_line1": '1 40362U 14088A   22104.08621954  .00007422  00000-0  31004-3 0  9996',
        "tle_line2": '2 40362  97.1559 156.8080 0004818 316.4441 128.0248 15.23894345406228',
        "epoch_iso": '2022-04-14T02:04:09.368256Z',
        "inclination_deg": '97.155900',
        "eccentricity": '0.00048180',
        "mean_motion_rev_per_day": '15.23894345',
        "altitude_m": '494107.510',
    },
    {
        "name": 'SMAP',
        "norad_catalog_id": '40376',
        "tle_line1": '1 40376U 15003A   22103.89132408  .00000390  00000-0  84700-4 0  9997',
        "tle_line2": '2 40376  98.1263 111.6525 0001571  66.0781 294.0586 14.63318454384541',
        "epoch_iso": '2022-04-13T21:23:30.400512Z',
        "inclination_deg": '98.126300',
        "eccentricity": '0.00015710',
        "mean_motion_rev_per_day": '14.63318454',
        "altitude_m": '682479.256',
    },
    {
        "name": 'KOMPSAT 3A',
        "norad_catalog_id": '40536',
        "tle_line1": '1 40536U 15014A   22103.87963591  .00004075  00000-0  23772-3 0  9995',
        "tle_line2": '2 40536  97.5673  47.2598 0001279  44.7317  40.9546 15.12515830389286',
        "epoch_iso": '2022-04-13T21:06:40.542624Z',
        "inclination_deg": '97.567300',
        "eccentricity": '0.00012790',
        "mean_motion_rev_per_day": '15.12515830',
        "altitude_m": '528530.608',
    },
    {
        "name": 'SENTINEL 2A',
        "norad_catalog_id": '40697',
        "tle_line1": '1 40697U 15028A   22104.48726746  .00000134  00000-0  67902-4 0  9991',
        "tle_line2": '2 40697  98.5715 180.1637 0001252 102.6670 257.4647 14.30812904355708',
        "epoch_iso": '2022-04-14T11:41:39.908544Z',
        "inclination_deg": '98.571500',
        "eccentricity": '0.00012520',
        "mean_motion_rev_per_day": '14.30812904',
        "altitude_m": '789014.903',
    },
    {
        "name": 'GAOFEN-8',
        "norad_catalog_id": '40701',
        "tle_line1": '1 40701U 15030A   22103.94865807 -.00002951  00000-0 -12163-3 0  9991',
        "tle_line2": '2 40701  97.5492 238.0715 0006175  20.4682  94.2572 15.23244516378568',
        "epoch_iso": '2022-04-13T22:46:04.057248Z',
        "inclination_deg": '97.549200',
        "eccentricity": '0.00061750',
        "mean_motion_rev_per_day": '15.23244516',
        "altitude_m": '496061.876',
    },
    {
        "name": 'CARBONITE 1',
        "norad_catalog_id": '40718',
        "tle_line1": '1 40718U 15032D   22104.09870319  .00001111  00000-0  17116-3 0  9990',
        "tle_line2": '2 40718  97.7470 331.2182 0015468 219.8334 140.1736 14.75249701363936',
        "epoch_iso": '2022-04-14T02:22:07.955616Z',
        "inclination_deg": '97.747000',
        "eccentricity": '0.00154680',
        "mean_motion_rev_per_day": '14.75249701',
        "altitude_m": '644358.741',
    },
    {
        "name": 'YAOGAN 27',
        "norad_catalog_id": '40878',
        "tle_line1": '1 40878U 15040A   22104.14504282 -.00000020  00000-0  58662-4 0  9996',
